[
  {
    "CCSDS_OMM_VERS": "3.0",
    "COMMENT": "GENERATED VIA SPACE-TRACK.ORG API",
    "CREATION_DATE": "2025-11-26T11:31:21",
    "ORIGINATOR": "18 SPCS",
    "OBJECT_NAME": "IRIDIUM 33 DEB",
    "OBJECT_ID": "1997-051QU",
    "CENTER_NAME": "EARTH",
    "REF_FRAME": "TEME",
    "TIME_SYSTEM": "UTC",
    "MEAN_ELEMENT_THEORY": "SGP4",
    "EPOCH": "2025-11-25T14:32:43.041408",
    "MEAN_MOTION": "15.01618191",
    "ECCENTRICITY": "0.00127880",
    "INCLINATION": "86.2030",
    "RA_OF_ASC_NODE": "272.0190",
    "ARG_OF_PERICENTER": "19.5721",
    "MEAN_ANOMALY": "159.6154",
    "EPHEMERIS_TYPE": "0",
    "CLASSIFICATION_TYPE": "U",
    "NORAD_CAT_ID": "35622",
    "ELEMENT_SET_NO": "999",
    "REV_AT_EPOCH": "87102",
    "BSTAR": "0.00635537920000",
    "MEAN_MOTION_DOT": "0.00083442",
    "MEAN_MOTION_DDOT": "0.0000000000000",
    "SEMIMAJOR_AXIS": "6940.043",
    "PERIOD": "95.897",
    "APOAPSIS": "570.783",
    "PERIAPSIS": "553.033",
    "OBJECT_TYPE": "DEBRIS",
    "RCS_SIZE": "SMALL",
    "COUNTRY_CODE": "US",
    "LAUNCH_DATE": "1997-09-14",
    "SITE": "TTMTR",
    "DECAY_DATE": null,
    "FILE": "4902534",
    "GP_ID": "303601531",
    "TLE_LINE0": "0 IRIDIUM 33 DEB",
    "TLE_LINE1": "1 35622U 97051QU  25329.60605372  .00083442  00000-0  63554-2 0  9996",
    "TLE_LINE2": "2 35622  86.2030 272.0190 0012788  19.5721 159.6154 15.01618191871023"
  },
  {
    "CCSDS_OMM_VERS": "3.0",
    "COMMENT": "GENERATED VIA SPACE-TRACK.ORG API",
    "CREATION_DATE": "2016-09-13T17:02:22",
    "ORIGINATOR": "18 SPCS",
    "OBJECT_NAME": "IRIDIUM 33 DEB",
    "OBJECT_ID": "1997-051QV",
    "CENTER_NAME": "EARTH",
    "REF_FRAME": "TEME",
    "TIME_SYSTEM": "UTC",
    "MEAN_ELEMENT_THEORY": "SGP4",
    "EPOCH": "2016-06-12T02:53:04.149888",
    "MEAN_MOTION": "15.50197910",
    "ECCENTRICITY": "0.00181700",
    "INCLINATION": "86.4206",
    "RA_OF_ASC_NODE": "109.5717",
    "ARG_OF_PERICENTER": "16.2587",
    "MEAN_ANOMALY": "1.6502",
    "EPHEMERIS_TYPE": "0",
    "CLASSIFICATION_TYPE": "U",
    "NORAD_CAT_ID": "35623",
    "ELEMENT_SET_NO": "999",
    "REV_AT_EPOCH": "36842",
    "BSTAR": "0.01263400000000",
    "MEAN_MOTION_DOT": "0.00776500",
    "MEAN_MOTION_DDOT": "0.0000000000000",
    "SEMIMAJOR_AXIS": "6794.284",
    "PERIOD": "92.891",
    "APOAPSIS": "428.494",
    "PERIAPSIS": "403.804",
    "OBJECT_TYPE": "DEBRIS",
    "RCS_SIZE": "SMALL",
    "COUNTRY_CODE": "US",
    "LAUNCH_DATE": "1997-09-14",
    "SITE": "TTMTR",
    "DECAY_DATE": "2016-06-23",
    "FILE": "2086000",
    "GP_ID": "107113413",
    "TLE_LINE0": "0 IRIDIUM 33 DEB",
    "TLE_LINE1": "1 35623U 97051QV  16164.12018692  .00776500  00000-0  12634-1 0  9990",
    "TLE_LINE2": "2 35623  86.4206 109.5717 0018170  16.2587   1.6502 15.50197910368428"
  },
  {
    "CCSDS_OMM_VERS": "3.0",
    "COMMENT": "GENERATED VIA SPACE-TRACK.ORG API",
    "CREATION_DATE": "2022-11-06T18:21:01",
    "ORIGINATOR": "18 SPCS",
    "OBJECT_NAME": "IRIDIUM 33 DEB",
    "OBJECT_ID": "1997-051QW",
    "CENTER_NAME": "EARTH",
    "REF_FRAME": "TEME",
    "TIME_SYSTEM": "UTC",
    "MEAN_ELEMENT_THEORY": "SGP4",
    "EPOCH": "2022-10-28T11:47:09.986784",
    "MEAN_MOTION": "15.28953344",
    "ECCENTRICITY": "0.00159070",
    "INCLINATION": "86.3274",
    "RA_OF_ASC_NODE": "117.8173",
    "ARG_OF_PERICENTER": "325.2210",
    "MEAN_ANOMALY": "34.7996",
    "EPHEMERIS_TYPE": "0",
    "CLASSIFICATION_TYPE": "U",
    "NORAD_CAT_ID": "35624",
    "ELEMENT_SET_NO": "999",
    "REV_AT_EPOCH": "71565",
    "BSTAR": "0.01649700000000",
    "MEAN_MOTION_DOT": "0.00495877",
    "MEAN_MOTION_DDOT": "0.0000000000000",
    "SEMIMAJOR_AXIS": "6857.077",
    "PERIOD": "94.182",
    "APOAPSIS": "489.849",
    "PERIAPSIS": "468.034",
    "OBJECT_TYPE": "DEBRIS",
    "RCS_SIZE": "SMALL",
    "COUNTRY_CODE": "US",
    "LAUNCH_DATE": "1997-09-14",
    "SITE": "TTMTR",
    "DECAY_DATE": "2022-11-16",
    "FILE": "3647066",
    "GP_ID": "217047327",
    "TLE_LINE0": "0 IRIDIUM 33 DEB",
    "TLE_LINE1": "1 35624U 97051QW  22301.49108781  .00495877  00000-0  16497-1 0  9996",
    "TLE_LINE2": "2 35624  86.3274 117.8173 0015907 325.2210  34.7996 15.28953344715653"
  },
  {
    "CCSDS_OMM_VERS": "3.0",
    "COMMENT": "GENERATED VIA SPACE-TRACK.ORG API",
    "CREATION_DATE": "2025-04-09T17:16:24",
    "ORIGINATOR": "18 SPCS",
    "OBJECT_NAME": "IRIDIUM 33 DEB",
    "OBJECT_ID": "1997-051QX",
    "CENTER_NAME": "EARTH",
    "REF_FRAME": "TEME",
    "TIME_SYSTEM": "UTC",
    "MEAN_ELEMENT_THEORY": "SGP4",
    "EPOCH": "2024-09-04T16:41:00.078720",
    "MEAN_MOTION": "14.23526907",
    "ECCENTRICITY": "0.01130470",
    "INCLINATION": "86.1936",
    "RA_OF_ASC_NODE": "225.8827",
    "ARG_OF_PERICENTER": "255.0425",
    "MEAN_ANOMALY": "231.3888",
    "EPHEMERIS_TYPE": "0",
    "CLASSIFICATION_TYPE": "U",
    "NORAD_CAT_ID": "35625",
    "ELEMENT_SET_NO": "999",
    "REV_AT_EPOCH": "79150",
    "BSTAR": "0.00778710000000",
    "MEAN_MOTION_DOT": "0.00018969",
    "MEAN_MOTION_DDOT": "0.0000000000000",
    "SEMIMAJOR_AXIS": "7191.587",
    "PERIOD": "101.157",
    "APOAPSIS": "894.750",
    "PERIAPSIS": "732.153",
    "OBJECT_TYPE": "DEBRIS",
    "RCS_SIZE": "SMALL",
    "COUNTRY_CODE": "US",
    "LAUNCH_DATE": "1997-09-14",
    "SITE": "TTMTR",
    "DECAY_DATE": null,
    "FILE": "4696204",
    "GP_ID": "285202514",
    "TLE_LINE0": "0 IRIDIUM 33 DEB",
    "TLE_LINE1": "1 35625U 97051QX  24248.69513980  .00018969  00000-0  77871-2 0  9999",
    "TLE_LINE2": "2 35625  86.1936 225.8827 0113047 255.0425 231.3888 14.23526907791503"
  },
  {
    "CCSDS_OMM_VERS": "3.0",
    "COMMENT": "GENERATED VIA SPACE-TRACK.ORG API",
    "CREATION_DATE": "2014-02-28T17:49:31",
    "ORIGINATOR": "18 SPCS",
    "OBJECT_NAME": "IRIDIUM 33 DEB",
    "OBJECT_ID": "1997-051QY",
    "CENTER_NAME": "EARTH",
    "REF_FRAME": "TEME",
    "TIME_SYSTEM": "UTC",
    "MEAN_ELEMENT_THEORY": "SGP4",
    "EPOCH": "2014-02-15T04:07:57.838079",
    "MEAN_MOTION": "15.52591622",
    "ECCENTRICITY": "0.00342230",
    "INCLINATION": "86.1798",
    "RA_OF_ASC_NODE": "18.7118",
    "ARG_OF_PERICENTER": "82.2170",
    "MEAN_ANOMALY": "69.4072",
    "EPHEMERIS_TYPE": "0",
    "CLASSIFICATION_TYPE": "U",
    "NORAD_CAT_ID": "35626",
    "ELEMENT_SET_NO": "999",
    "REV_AT_EPOCH": "25466",
    "BSTAR": "0.01954700000000",
    "MEAN_MOTION_DOT": "0.01354778",
    "MEAN_MOTION_DDOT": "0.0000000000000",
    "SEMIMAJOR_AXIS": "6787.303",
    "PERIOD": "92.748",
    "APOAPSIS": "432.397",
    "PERIAPSIS": "385.940",
    "OBJECT_TYPE": "DEBRIS",
    "RCS_SIZE": "SMALL",
    "COUNTRY_CODE": "US",
    "LAUNCH_DATE": "1997-09-14",
    "SITE": "TTMTR",
    "DECAY_DATE": "2014-02-24",
    "FILE": "1640265",
    "GP_ID": "95285824",
    "TLE_LINE0": "0 IRIDIUM 33 DEB",
    "TLE_LINE1": "1 35626U 97051QY  14046.17219720  .01354778  00000-0  19547-1 0  9990",
    "TLE_LINE2": "2 35626 086.1798 018.7118 0034223 082.2170 069.4072 15.52591622254662"
  },
  {
    "CCSDS_OMM_VERS": "3.0",
    "COMMENT": "GENERATED VIA SPACE-TRACK.ORG API",
    "CREATION_DATE": "2023-10-26T04:39:24",
    "ORIGINATOR": "18 SPCS",
    "OBJECT_NAME": "IRIDIUM 33 DEB",
    "OBJECT_ID": "1997-051QZ",
    "CENTER_NAME": "EARTH",
    "REF_FRAME": "TEME",
    "TIME_SYSTEM": "UTC",
    "MEAN_ELEMENT_THEORY": "SGP4",
    "EPOCH": "2023-10-24T20:21:20.960064",
    "MEAN_MOTION": "15.45487623",
    "ECCENTRICITY": "0.00169930",
    "INCLINATION": "86.3302",
    "RA_OF_ASC_NODE": "335.1005",
    "ARG_OF_PERICENTER": "292.9475",
    "MEAN_ANOMALY": "66.9988",
    "EPHEMERIS_TYPE": "0",
    "CLASSIFICATION_TYPE": "U",
    "NORAD_CAT_ID": "35627",
    "ELEMENT_SET_NO": "999",
    "REV_AT_EPOCH": "76256",
    "BSTAR": "0.01495500000000",
    "MEAN_MOTION_DOT": "0.00781370",
    "MEAN_MOTION_DDOT": "0.0000000000000",
    "SEMIMAJOR_AXIS": "6808.083",
    "PERIOD": "93.174",
    "APOAPSIS": "441.517",
    "PERIAPSIS": "418.379",
    "OBJECT_TYPE": "DEBRIS",
    "RCS_SIZE": "SMALL",
    "COUNTRY_CODE": "US",
    "LAUNCH_DATE": "1997-09-14",
    "SITE": "TTMTR",
    "DECAY_DATE": "2023-11-11",
    "FILE": "4052988",
    "GP_ID": "240186775",
    "TLE_LINE0": "0 IRIDIUM 33 DEB",
    "TLE_LINE1": "1 35627U 97051QZ  23297.84815926  .00781370  00000-0  14955-1 0  9992",
    "TLE_LINE2": "2 35627  86.3302 335.1005 0016993 292.9475  66.9988 15.45487623762567"
  },
  {
    "CCSDS_OMM_VERS": "3.0",
    "COMMENT": "GENERATED VIA SPACE-TRACK.ORG API",
    "CREATION_DATE": "2025-11-25T03:42:27",
    "ORIGINATOR": "18 SPCS",
    "OBJECT_NAME": "IRIDIUM 33 DEB",
    "OBJECT_ID": "1997-051RA",
    "CENTER_NAME": "EARTH",
    "REF_FRAME": "TEME",
    "TIME_SYSTEM": "UTC",
    "MEAN_ELEMENT_THEORY": "SGP4",
    "EPOCH": "2025-11-24T10:30:49.267008",
    "MEAN_MOTION": "14.67200796",
    "ECCENTRICITY": "0.00125959",
    "INCLINATION": "86.3579",
    "RA_OF_ASC_NODE": "17.2339",
    "ARG_OF_PERICENTER": "44.5703",
    "MEAN_ANOMALY": "315.6521",
    "EPHEMERIS_TYPE": "0",
    "CLASSIFICATION_TYPE": "U",
    "NORAD_CAT_ID": "35628",
    "ELEMENT_SET_NO": "999",
    "REV_AT_EPOCH": "86178",
    "BSTAR": "0.00125154970000",
    "MEAN_MOTION_DOT": "0.00007074",
    "MEAN_MOTION_DDOT": "0.0000000000000",
    "SEMIMAJOR_AXIS": "7048.155",
    "PERIOD": "98.146",
    "APOAPSIS": "678.898",
    "PERIAPSIS": "661.143",
    "OBJECT_TYPE": "DEBRIS",
    "RCS_SIZE": "SMALL",
    "COUNTRY_CODE": "US",
    "LAUNCH_DATE": "1997-09-14",
    "SITE": "TTMTR",
    "DECAY_DATE": null,
    "FILE": "4899133",
    "GP_ID": "303459981",
    "TLE_LINE0": "0 IRIDIUM 33 DEB",
    "TLE_LINE1": "1 35628U 97051RA  25328.43807022  .00007074  00000-0  12515-2 0  9996",
    "TLE_LINE2": "2 35628  86.3579  17.2339 0012596  44.5703 315.6521 14.67200796861780"
  }
]